CIC_OEM_VERS = 2.0
CREATION_DATE = 2025-03-12T09:55:31.241813
ORIGINATOR = ISAE-SUPAERO


META_START
OBJECT_NAME = PLEIADES1A
OBJECT_ID = PLEIADES1A
CENTER_NAME = Earth
REF_FRAME = EME2000
TIME_SYSTEM = UTC
START_TIME = 2025-03-12T03:45:28.258
USEABLE_START_TIME = 2025-03-12T03:45:28.258
USEABLE_STOP_TIME = 2025-03-12T23:56:28.258
STOP_TIME = 2025-03-12T23:56:28.258
INTERPOLATION = lagrange
INTERPOLATION_DEGREE = 5
META_STOP



60746 13528.258 -4906.5738 3685.7362000000003 3522.1542999999997 3.686616 -1.2305039 6.4211426000000005
60746 13948.258 -2924.7166 2821.9148999999998 5780.6989 5.5732843 -2.7958188 4.1884625
60746 14368.258 -373.02025000000003 1408.8292 6913.2563 6.3693781 -3.8149199 1.1291118
60746 14788.258 2250.9557999999997 -278.37005 6696.1705 5.9189375 -4.086245 -2.1449042
60746 15208.258 4436.4528 -1911.3968 5170.9796 4.3160411000000005 -3.5613683000000003 -4.9970662
60746 15628.258 5757.9806 -3172.1792 2636.1451 1.8728672 -2.3430188 -6.8731779
60746 16048.258 5958.4502999999995 -3815.3395 -413.36692 -0.93360047 -0.66920884 -7.4071826000000005
60746 16468.258 4999.9928 -3716.3969 -3382.3804 -3.5543697 1.1320337999999999 -6.4972621
60746 16888.258 3070.7186 -2895.931 -5693.337 -5.4803622999999995 2.7098898 -4.3261169
60746 17308.258 546.39586 -1514.3426000000002 -6898.4232 -6.3422412 3.7606994 -1.3178955
60746 17728.258 -2083.6763 160.47331 -6764.0022 -5.9754688 4.0833391 1.948525
60746 18148.258 -4309.124400000001 1803.9398999999999 -5313.7086 -4.4458706 3.613137 4.8452185
60746 18568.258 -5694.7057 3095.7403 -2825.4187 -2.0416133 2.4355254 6.8063825
60746 18988.258 -5966.2796 3781.8409 216.42339 0.77120899 0.77647308 7.4370814
60746 19408.258 -5067.759599999999 3726.2299 3215.6179 3.4360815 -1.0368638000000001 6.605963300000001
60746 19828.258 -3175.4242000000004 2939.8982 5582.7212 5.4242349999999995 -2.6445984 4.4786078
60746 20248.258 -661.41688 1578.3303 6855.925 6.3466152000000005 -3.7314353000000002 1.4763681
60746 20668.258 1981.4611000000002 -91.471455 6785.661700000001 6.0300815000000005 -4.0881891999999995 -1.8046659
60746 21088.258 4238.3378 -1743.4933999999998 5389.9222 4.5390455 -3.6483303 -4.7312386
60746 21508.258 5669.5382 -3055.8647 2941.5125000000003 2.1632558 -2.4975266 -6.7343307999999995
60746 21928.258 5996.1004 -3772.8611 -81.542487 -0.63373543 -0.86030145 -7.4219348
60746 22348.258 5155.174 -3755.274 -3088.7224 -3.3039421000000004 0.94226707 -6.6610278
60746 22768.258 3312.012 -3007.6891 -5494.2982 -5.3270572000000005 2.5580932 -4.6052634
60746 23188.258 826.38885 -1676.7161 -6831.579 -6.3140311 3.6752447000000004 -1.6580171000000001
60746 23608.258 -1819.3467 -20.849874 -6841.6097 -6.0770441 4.079979 1.6117714
60746 24028.258 -4111.8365 1638.8897 -5520.769200000001 -4.6585265 3.6928368999999996 4.575513
60746 24448.258 -5603.6587 2979.5014 -3122.0804 -2.3253799 2.5836686 6.6562241
60746 24868.258 -6000.106900000001 3737.5447999999997 -112.39798 0.47034319 0.9652510999999999 7.4372321
60746 25288.258 -5221.0797 3763.3628 2919.2895 3.1776113 -0.8444310500000001 6.7581685
60746 25708.258 -3419.0606000000002 3051.8354 5377.6297 5.259949 -2.4868783 4.753521
60746 26128.258 -947.50644 1742.1196000000002 6776.8126 6.315457500000001 -3.6438191000000004 1.8186271999999999
60746 26548.258 1712.3037 91.472104 6856.7887 6.1241202999999995 -4.0819529 -1.479411
60746 26968.258 4033.2347999999997 -1575.7513000000001 5585.411700000001 4.744 -3.7253581 -4.4753771
60746 27388.258 5566.001700000001 -2935.0074 3220.1129 2.4327479 -2.6392981 -6.600891300000001
60746 27808.258 6009.0525 -3719.6427000000003 222.92024 -0.3582613 -1.0347629 -7.433263200000001
60746 28228.258 5275.2612 -3775.8429 -2818.1632000000004 -3.0769771 0.7710432899999999 -6.8065978
60746 28648.258 3510.9108 -3094.3822999999998 -5307.1084 -5.1868378 2.4208339000000003 -4.8501547
60746 29068.258 1061.8993 -1809.7303000000002 -6759.914 -6.281388700000001 3.5944995 -1.9552869000000002
60746 29488.258 -1593.45 -173.61175 -6896.892900000001 -6.1546325 4.0679304 1.312998
60746 29908.258 -3939.813 1496.1615 -5693.0212 -4.8341552000000005 3.7522538 4.3253710000000005
60746 30328.258 -5521.468400000001 2875.4888 -3381.531 -2.5722909 2.7070997 6.5002666
60746 30748.258 -6029.3467 3695.6126000000004 -410.75624 0.19514647 1.1327165000000001 7.4110038000000005
60746 31168.258 -5362.548 3795.6994 2640.0005 2.9274759 -0.66404132 6.8748797999999995
60746 31588.258 -3650.6934 3156.0832 5174.9108 5.0889923 -2.3311591 4.995793300000001
60746 32008.258 -1227.6627 1901.6663999999998 6699.2351 6.2581156 -3.5432710000000003 2.1425262
60746 32428.258 1434.4126 276.94642 6915.6541 6.2084381 -4.0654176 -1.129558
60746 32848.258 3816.8482000000004 -1401.7091 5780.8283 4.9473196 -3.7952096 -4.1859348
60746 33268.258 5458.7492 -2808.4927000000002 3521.1367999999998 2.7118426 -2.7785545000000003 -6.4218593
60746 33688.258 6030.0562 -3664.1734 570.87707 -0.046255955 -1.2241884 -7.403813
60746 34108.258 5422.6653 -3803.832 -2492.4641 -2.7981378 0.57021543 -6.940865700000001
60746 34528.258 3756.8782 -3201.0745 -5068.1627 -5.0022028 2.2521228 -5.1208352999999995
60746 34948.258 1358.6190000000001 -1974.2441000000001 -6653.4226 -6.2286413000000005 3.4928625 -2.303398
60746 35368.258 -1304.2138 -363.00749 -6939.9894 -6.2416385000000005 4.0526786 0.96134348
60746 35788.258 -3713.0612 1318.8465 -5871.9553 -5.0388481 3.8234611000000003 4.0406782
60746 36208.258 -5397.929099999999 2743.5395 -3656.0656000000004 -2.8505572000000003 2.8477620000000003 6.335249
60746 36628.258 -6028.5037 3632.3297000000002 -724.62189 -0.10184992 1.3140297 7.391769
60746 37048.258 -5480.7877 3811.1959 2348.8926 2.6662081 -0.47614532000000004 7.0001978000000005
60746 37468.258 -3857.7387000000003 3242.1077000000005 4959.183 4.914255900000001 -2.172453 5.2457889
60746 37888.258 -1480.6027 2039.249 6597.4316 6.2066653 -3.4480349 2.4584044
60746 38308.258 1186.4059 438.06743 6946.1674 6.2797408 -4.0464992 -0.8146230000000001
60746 38728.258 3620.994 -1248.112 5935.5633 5.1221379 -3.8511151 -3.922546
60746 39148.258 5347.577 -2690.4476 3760.3249 2.9628359 -2.9028757 -6.2631714
60746 39568.258 6028.0824 -3606.4946 847.5856600000001 0.22420990000000002 -1.3869532999999998 -7.3756034
60746 39988.258 5530.4496 -3817.7192000000005 -2231.4549 -2.5532274000000004 0.39698568 -7.0425377
60746 40408.258 3954.8654 -3284.8751 -4874.785 -4.8243231 2.0975288 -5.3369964
60746 40828.258 1611.0537 -2114.0480000000002 -6569.407 -6.1519079 3.3851606000000003 -2.6008847999999998
60746 41248.258 -1044.7174 -533.97259 -6989.354200000001 -6.2866905 4.015208 0.6335705500000001
60746 41668.258 -3498.4014 1149.32 -6054.2706 -5.2050146999999996 3.8685977 3.7467961
60746 42088.258 -5274.1193 2609.7949 -3943.3925 -3.1099323 2.9707323999999997 6.1403103
60746 42508.258 -6024.0204 3562.5922 -1063.9476000000002 -0.40074855000000004 1.4906113 7.343976
60746 42928.258 -5598.4237 3820.1558 2023.3173000000002 2.3946853000000003 -0.28509677 7.112339
60746 43348.258 -4078.1029 3330.7185 4713.8025 4.7246664 -2.0069084 5.485688100000001
60746 43768.258 -1760.0648999999999 2189.7801 6479.8951 6.1298699 -3.3356446 2.7842753
60746 44188.258 901.95128 620.97313 6976.892900000001 6.3353463 -4.0113068 -0.46197808
60746 44608.258 3386.6563 -1068.4112 6107.7080000000005 5.2991071000000005 -3.9017163999999998 -3.6231207
60746 45028.258 5210.0436 -2548.9122 4044.3009 3.2288525 -3.0291899 -6.0661594999999995
60746 45448.258 6012.0981 -3530.1127 1183.8276 0.5263457300000001 -1.5651810000000002 -7.3283983
60746 45868.258 5637.410400000001 -3820.3428 -1908.9112 -2.2806228 0.20595121 -7.1533009000000005
60746 46288.258 4158.8054 -3362.3894 -4626.446 -4.640160600000001 1.935741 -5.5765833
60746 46708.258 1863.8911 -2244.5939 -6434.420099999999 -6.0938582 3.2870264000000002 -2.9120459000000003
60746 47128.258 -793.87733 -689.24355 -6983.0956 -6.3542534 3.9953998000000004 0.32860193
60746 47548.258 -3297.8459 1000.6774 -6169.3066 -5.364269500000001 3.9175340000000003 3.5042338
60746 47968.258 -5157.0783 2494.3623 -4149.8503 -3.328274 3.0741026000000002 5.9852566
60746 48388.258 -6011.0651 3502.0788 -1317.824 -0.64798778 1.6337484 7.2939288
60746 48808.258 -5687.9487 3824.2223 1774.2852 2.1601926 -0.12481037 7.1842894
60746 49228.258 -4255.7807999999995 3400.6623 4519.338 4.5457961 -1.858141 5.6705751
60746 49648.258 -1994.702 2314.7518999999998 6382.058400000001 6.0427009 -3.22693 3.0531188000000005
60746 50068.258 654.35653 778.64513 7000.5533 6.3633401 -3.9669118 -0.15655865
60746 50488.258 3176.1456000000003 -908.80466 6254.5376 5.446363900000001 -3.9356505000000004 -3.3377277
60746 50908.258 5078.9178 -2418.9373 4287.4038 3.4655707000000002 -3.1371281 -5.8742768
60746 51328.258 5994.594400000001 -3458.7305 1485.9423000000002 0.80489036 -1.7238577000000002 -7.2594761
60746 51748.258 5739.3845 -3823.3203 -1608.7347 -2.011988 0.024807909 -7.2267007
60746 52168.258 4362.5873 -3440.6202000000003 -4387.339599999999 -4.4344335 1.7666149 -5.7853693999999996
60746 52588.258 2136.4824 -2388.1248 -6309.7498 -5.990364400000001 3.1620395 -3.2178071
60746 53008.258 -505.04953000000006 -871.30162 -7002.3469000000005 -6.3804697 3.9415377 -0.025736794
60746 53428.258 -3048.3241000000003 814.85001 -6330.3244 -5.5298661000000005 3.9549784 3.1736307000000004
60746 53848.258 -4997.9843 2342.2586 -4422.8327 -3.5991374 3.1973291 5.7601648
60746 54268.258 -5979.816 3416.7116 -1652.9974 -0.96366494 1.8131692000000001 7.2136469
60746 54688.258 -5788.7978 3820.5035000000003 1438.9627 1.8581062 0.077811108 7.2651579
60746 55108.258 -4469.9029 3479.9272 4250.1131 4.3159644 -1.6712566 5.8990938
60746 55528.258 -2281.8313 2462.6311 6232.5671 5.930852 -3.0925990000000003 3.3854265999999997
60746 55948.258 349.52885 966.96057 7001.3822 6.392556 -3.9120374000000004 0.2150319
60746 56368.258 2912.928 -716.45395 6406.8853 5.6121612 -3.9717704 -3.0000727
60746 56788.258 4908.952 -2260.0905000000002 4562.4258 3.7365967 -3.2580164000000003 -5.6376008
